COSMOS 1892             
1 18421U 87088A   21226.49583119  .00000676  00000-0  31767-4 0  9997
2 18421  82.4988 214.6736 0015941  41.7738 318.4709 15.17753247848707
SL-14 R/B               
1 18749U 88001B   21226.52881475  .00000072  00000-0  59369-5 0  9995
2 18749  82.5164 321.1494 0018354 348.7529  21.5781 14.83269426794582
COSMOS 1933             
1 18958U 88020A   21226.31190205  .00000135  00000-0  76809-5 0  9997
2 18958  82.5270  77.1953 0012255 145.3621 214.8406 15.03968748798635
SL-3 R/B                
1 19046U 88032B   21226.46084005 -.00000499  00000-0 -32219-4 0  9996
2 19046  97.3859 234.3321 0036109 203.3982 156.5602 15.02971526800491
SL-16 R/B               
1 19120U 88039B   21226.50465930 -.00000162  00000-0 -54379-4 0  9999
2 19120  71.0168 354.5876 0021400  12.7114 347.4546 14.19225355721672
COSMOS 1953             
1 19210U 88050A   21226.44946586  .00001066  00000-0  70355-4 0  9990
2 19210  82.5188 359.1267 0014178 110.9086 249.3660 15.06340244785331
SL-8 R/B                
1 19257U 88053B   21226.48697264  .00000035  00000-0  20289-4 0  9990
2 19257  74.0495 303.1052 0020285 180.6894 190.3153 14.37527938736795
COSMOS 1975             
1 19573U 88093A   21226.53324830  .00000596  00000-0  39653-4 0  9994
2 19573  82.5219 314.2799 0014665 155.7473 204.4447 15.05240488767106
SL-14 R/B               
1 19574U 88093B   21226.32022951  .00000091  00000-0  80607-5 0  9997
2 19574  82.5343 164.6176 0022441 144.2017 330.3798 14.83380241753558
SL-16 R/B               
1 19650U 88102B   21226.55255503 -.00000142  00000-0 -48038-4 0  9999
2 19650  70.9998  60.2128 0013419  21.5069 338.6615 14.15810283690768
INTERCOSMOS 24          
1 20261U 89080A   21226.18834601 -.00000162  00000-0 -53956-4 0  9993
2 20261  82.6028 106.7127 1202200 192.2797 164.6413 12.56212426457076
SL-14 R/B               
1 20262U 89080C   21226.30683694  .00000116  00000-0  27770-4 0  9994
2 20262  82.5959 163.0810 1237847  33.0178 334.2352 12.48976965451778
DELTA 2 R/B(1)          
1 20303U 89085B   21226.36941643  .00002773  00000-0  85439-4 0  9999
2 20303  35.6421 229.7141 0089549 341.2860  18.4586 15.29606362733348
DELTA 1 R/B             
1 20323U 89089B   21226.49975084  .00000025  00000-0  15848-4 0  9990
2 20323  97.1215 311.7728 0071098 341.5527  18.3094 14.48412532654103
ARIANE 40 R/B           
1 20443U 90005H   21226.46350431  .00000013  00000-0  18901-4 0  9993
2 20443  98.5251 292.2998 0010970 156.5324 203.6366 14.38138453652918
DELTA 2 R/B(1)          
1 20453U 90008B   21226.48495992  .00001522  00000-0  84647-4 0  9997
2 20453  35.6254 279.7278 0276922 239.3594 117.9547 14.86740753674169
COSMOS 2058             
1 20465U 90010A   21226.44221222  .00000163  00000-0  11436-4 0  9998
2 20465  82.4871 226.2418 0014486 209.8605 150.1793 14.98251446691654
SL-14 R/B               
1 20466U 90010B   21226.51092012  .00000065  00000-0  52816-5 0  9999
2 20466  82.5026  30.8394 0021269  31.5129 328.7354 14.81433152681369
SL-14 R/B               
1 20511U 90018B   21226.40729984  .00000074  00000-0  66665-5 0  9998
2 20511  82.5258 339.2122 0017813 165.9266 260.0769 14.80087491675671
HST                     
1 20580U 90037B   21226.55117377  .00000501  00000-0  19291-4 0  9995
2 20580  28.4708  40.6466 0002617 332.4527  75.3911 15.09703745519804
SL-16 R/B               
1 20625U 90046B   21226.34688333 -.00000229  00000-0 -93872-4 0  9993
2 20625  70.9971 200.5495 0015938 313.1557  46.8232 14.14667594612423
COSMOS 2084             
1 20663U 90055A   21226.31294406  .00000087  00000-0  26297-4 0  9993
2 20663  62.7929 196.0804 0078932  14.9009 345.4383 14.92283499686454
SL-6 R/B(2)             
1 20666U 90055D   21226.42912455  .00000057  00000-0  23138-4 0  9997
2 20666  62.7847 111.0476 0105428  41.2898 319.6107 14.92537239688428
SL-8 R/B                
1 20775U 90078B   21226.50512421  .00002610  00000-0  12610-3 0  9990
2 20775  82.9238 237.3064 0564961 322.6274  33.6833 14.36227415566421
SL-8 R/B                
1 21088U 91006B   21226.38031247  .00000047  00000-0  31580-4 0  9998
2 21088  82.9454 330.7778 0023146  30.3903  34.2037 13.77175407534421
OKEAN-3                 
1 21397U 91039A   21226.47684574  .00000208  00000-0  17432-4 0  9993
2 21397  82.5233 134.5470 0017304 188.8176 171.2743 14.93138069615365
COSMOS 2151             
1 21422U 91042A   21226.45214331  .00000135  00000-0  10720-4 0  9996
2 21422  82.4980 240.1717 0012552 258.4567 101.5243 14.92281892613897
SL-14 R/B               
1 21423U 91042B   21226.41140083  .00000071  00000-0  64071-5 0  9993
2 21423  82.4965 341.5876 0016495 317.3134  42.6796 14.79836746606213
ERS-1                   
1 21574U 91050A   21226.46550988  .00000026  00000-0  23280-4 0  9999
2 21574  98.6516 187.3445 0034056 108.8270 251.6615 14.37808968575908
ARIANE 40 R/B           
1 21610U 91050F   21226.42506667  .00000007  00000-0  15608-4 0  9995
2 21610  98.4201 296.3027 0004403  77.2787 295.5022 14.40959265578611
INTERCOSMOS 25          
1 21819U 91086A   21226.46572581  .00000354  00000-0  63109-4 0  9991
2 21819  82.5780 232.7794 1517227  90.4875 286.9550 12.05273716295246
SL-8 R/B                
1 21876U 92008B   21226.34157676 -.00000031  00000-0 -48175-4 0  9990
2 21876  82.9236  68.1039 0035983 112.4289  60.5206 13.75683209480014
SL-8 R/B                
1 21938U 92020B   21226.51159403  .00000020  00000-0  48803-5 0  9997
2 21938  82.9320 312.4763 0027825 273.1920  97.0825 13.75292295471821
COSMOS 2219             
1 22219U 92076A   21226.43216766  .00000272  00000-0  16860-3 0  9993
2 22219  71.0577 264.1022 0019710 231.7728 128.1620 14.13661274482582
SL-16 R/B               
1 22220U 92076B   21226.39172360 -.00000201  00000-0 -77170-4 0  9997
2 22220  71.0000 101.2678 0010922 123.2464  49.1142 14.16471669485563
COSMOS 2221             
1 22236U 92080A   21226.53605885  .00000158  00000-0  14434-4 0  9991
2 22236  82.5056  63.8401 0016663   2.6613 357.4690 14.88083613532180
SL-16 R/B               
1 22285U 92093B   21226.45025505 -.00000127  00000-0 -40775-4 0  9990
2 22285  71.0192 265.0972 0005660 311.1743  48.8891 14.15060368477144
COSMOS 2228             
1 22286U 92094A   21226.49300457  .00000188  00000-0  17531-4 0  9997
2 22286  82.5204  20.6194 0022524 114.3352 246.0220 14.88308415527360
SL-16 R/B               
1 22566U 93016B   21226.43081084 -.00000070  00000-0 -11597-4 0  9997
2 22566  71.0086 117.8777 0011455 331.1897  28.8591 14.14978543466163
COSMOS 2242             
1 22626U 93024A   21226.51270910  .00000185  00000-0  17220-4 0  9994
2 22626  82.5200  48.9062 0020300 114.1957 246.1386 14.88158661531758
SL-16 R/B               
1 22803U 93059B   21226.44421726 -.00000145  00000-0 -48261-4 0  9991
2 22803  70.9897 287.8398 0019108 236.1282 123.8024 14.16838915443215
ARIANE 40 R/B           
1 22830U 93061H   21226.39680686 -.00000031  00000-0  53998-5 0  9997
2 22830  98.7093 284.1343 0011445 156.5439 203.6268 14.31487782455338
COSMOS 2278             
1 23087U 94023A   21226.48444946 -.00000229  00000-0 -95920-4 0  9998
2 23087  71.0541  63.4311 0007190  42.3664 317.8013 14.13836810408987
SL-16 R/B               
1 23088U 94023B   21226.44833852 -.00000234  00000-0 -97013-4 0  9994
2 23088  71.0024 333.2782 0005518 296.0077  64.0477 14.14693958410132
SL-16 R/B               
1 23343U 94074B   21226.41183412  .00000004  00000-0  77933-5 0  9994
2 23343  97.9416 280.1469 0005931 218.4582 152.3264 14.76894120440846
SL-16 R/B               
1 23405U 94077B   21226.44009636 -.00000153  00000-0 -53959-4 0  9992
2 23405  70.9805 261.0673 0003430 220.0084 140.0786 14.15239389380187
ERS-2                   
1 23560U 95021A   21226.50437419  .00000829  00000-0  37849-4 0  9993
2 23560  98.5426  84.6972 0003785 150.2083 209.9367 15.24108423406534
ARIANE 40+ R/B          
1 23561U 95021B   21226.51776949  .00000015  00000-0  19915-4 0  9990
2 23561  98.6702 276.8704 0008113  81.3968  49.8155 14.38039773379379
SL-16 R/B               
1 23705U 95058B   21226.56851063  .00000223  00000-0  13933-3 0  9990
2 23705  71.0214  81.1952 0011429 150.2617 209.9158 14.15149366331831
SL-16 R/B               
1 24298U 96051B   21226.37256444 -.00000172  00000-0 -66804-4 0  9994
2 24298  70.8264  98.7757 0013258  85.5961 274.6673 14.12426786286079
ORBVIEW 2 (SEASTAR)     
1 24883U 97037A   21226.56689743  .00000048  00000-0  33561-4 0  9996
2 24883  98.6483 344.5863 0001328 314.1835  45.9240 14.33627447269335
SL-16 R/B               
1 25400U 98043G   21226.41167765 -.00000014  00000-0  12594-4 0  9996
2 25400  98.6408 161.4104 0009862 176.3804 183.7448 14.25480375201275
SL-16 R/B               
1 25407U 98045B   21226.32746990 -.00000280  00000-0 -11825-3 0  9999
2 25407  71.0108  88.8626 0006041  33.9726 326.1783 14.15839913190932
ISS (ZARYA)             
1 25544U 98067A   21226.68873804  .00001361  00000-0  32929-4 0  9997
2 25544  51.6439  53.4192 0001237 308.8534 148.3727 15.48901649297667
CZ-4B R/B               
1 25732U 99025C   21226.52730243 -.00000024  00000-0  10109-4 0  9995
2 25732  98.8984 263.1020 0038426  84.3460  61.9681 14.17697481151768
OKEAN-O                 
1 25860U 99039A   21226.53133174  .00000018  00000-0  10109-4 0  9995
2 25860  98.1795 258.0635 0001062  69.7609 290.3714 14.76752453187957
SL-16 R/B               
1 25861U 99039B   21226.50211052  .00000012  00000-0  91801-5 0  9998
2 25861  98.2032 242.9931 0014467 236.5391 285.1996 14.78655709190135
DELTA 2 R/B             
1 25876U 99041E   21226.33120489  .00000022  00000-0  45122-4 0  9996
2 25876  51.7639  80.7382 0531713 137.5139 226.8240 14.04601595128053
HELIOS 1B               
1 25977U 99064A   21226.47120099  .00000041  00000-0  12272-4 0  9996
2 25977  98.3204  43.2839 0002460  76.4513 283.6973 14.82573619437799
